id,lat,long,name,address,word
52e3e781a9f915df2a69a43feb65fdbdb4542c69,40.857374,-124.0720431,Ω Divine Tribe Ω,56 Sunnybrae Center Arcata CA 95521 USA,ecig
558a36eefabb124e512281fa972b9b9db44be9c9,39.1458965,-123.2070495,Build A Ecig,534 S State St Ukiah CA 95482 USA,ecig
bac67cd330b7a6f6fc0da77846eb040d84b365fe,37.780882,-122.474169,Vapurr Labs Express e-cig and e-liquid,5100 Geary Blvd San Francisco CA 94118 USA,ecig
ab15227ee1bafc7239cd58ff505cf4b2b1547f05,37.7764922,-122.4784859,Vapurr Labs Express e-cig and e-liquid,1821 Balboa St San Francisco CA 94121 USA,ecig
88d6e4e3594c7be7410b6fd592b62b2ce799cde4,38.2499079,-122.6291653,Smoke Depot Smoke Shop,231 N McDowell Blvd Petaluma CA 94954 USA,ecig
ff38e1b12cceb41cfde1f0a6e07f9e51df86ca91,36.7791899,-119.8003233,Tower Smoke,3135 N Maroa Ave Fresno CA 93704 USA,ecig
79613aaa105aa44e33c557ca029f69df0007ac95,33.1354157,-117.1821653,Cloud 9 E-Cig,813 W San Marcos Blvd San Marcos CA 92078 USA,ecig
81864e783253a67c1e752d5f9c0d544505c05deb,34.5421357,-117.2713443,The Broke Smoker Vape Shop,16025 Kamana Rd #101 Apple Valley CA 92307 USA,ecig
91c7720aed17d37199b313369be599bca36802c0,34.0411842,-118.4297377,CIGAVETTE,2355 Westwood Blvd Los Angeles CA 90064 USA,ecig
a9336fd4e9b3466ba8bbae6fb1066afe42adb36b,34.1404837,-118.3774487,Vaporcade,11271 Ventura Blvd #176 Studio City CA 91604 USA,ecig
88683c39c472e206717706a0a57301c4a791f3e7,32.8453891,-116.9631394,Imperial Smoke,10870 Hartley Rd B Santee CA 92071 USA,ecig
472170751668efe2d5e2fda44a2f76438144e2e7,33.1507506,-117.229466,Vape Craft Inc,2322 La Mirada Dr Vista CA 92083 USA,ecig
c9611cac3fbabaabf8bd0d11b00e5fd86bf0f33e,34.473356,-117.348231,E Cigarette,14400 Bear Valley Rd Victorville CA 92392 USA,ecigarette
901f43f7843855560bb60bd8166ca61f525124c6,34.53865,-117.254482,Vaper Rizing,18768 US Highway 18 #165 Apple Valley CA 92307 United States,ecigarette
68e2578de9f34b47cb67319e9b80fe7f07d12984,33.676565,-117.915962,Electronic E Cigarette Liquid,2855 Pinecreek Dr Costa Mesa CA 92626 USA,ecigarette
2baa0bb034cf6b0a42b744ac3f220b882ddb0ad1,34.0345838,-117.9368484,Vapebox,15940 Kaplan Ave City of Industry CA 91744 USA,ecigarette
419a1a45b1d42c7bc3d08b31313258f60f49750e,33.7760532,-117.8690666,Green Nicotine Electronic Cigarette,2850 N Main St Santa Ana CA 92701 USA,ecigarette
11b27ad05dd5346f79f399f3ad430b4766b4f49d,34.0571405,-117.2145494,Electric Lotus Manufacturing,1740 Howard Pl Redlands CA 92373 USA,ecigarette
81751e59943a3f3677299b58157641fa114bab5f,32.824815,-115.569949,Deluxe Vapes,690 Main St El Centro CA 92243 USA,ecigarette
6c76b2a7cee2a026f2dea03d0b0bf5fd94c36955,41.770273,-124.1996319,High Tide Vapes,1329 Northcrest Dr Crescent City CA 95531 USA,vape
e049725f7ad0331cdb7ac2d4e879116b1a85b2f5,41.6985384,-122.6387513,North Cloud Vape Distribution,2216 Fairlane Rd D Yreka CA 96097 USA,vape
0ba23b2f16730cf5dc473c7751989839a9b73a0e,40.7814714,-124.1851941,S.T.I.L.,2940 Broadway St # E Eureka CA 95501 USA,vape
b31350771bf1f99656f664142364df57804a7c9d,40.5633269,-122.361982,Puffys Vapes & Smokes,3025 Bechelli Ln Redding CA 96002 USA,vape
666c55c99435933eab6e7d12d704da7619a2e6a9,40.521308,-122.382949,Tobacco & More,6392 Westside Rd # E Redding CA 96001 USA,vape
3e0e573887d9ee05300d2be341a1b16cd5253008,40.5875892,-122.3529269,Smoke & Vape,1340 churn creek rd suite C1 Redding CA 96003 United States,vape
4526ca75be497ef1c747ab0a1775088456377d46,40.4537311,-122.2876965,Tobbacco&More,2619 Balls Ferry Rd Anderson CA 96007 USA,vape
27f19e2b20616e8ab04f35467c20d8c14e84a756,33.9241233,-117.9227208,Vape Bartender,2120 E Lambert Rd Suite #A La Habra CA 90631 USA,vape
6178a7be38fb09f0f41863984f481529b07a4c7a,33.7359315,-118.0310179,USA Vape Lab,15572 Commerce Ln Huntington Beach CA 92649 USA,vape
52910bed5ade34ffe36532bcb1ab6f1446c6ff06,38.6784212,-121.783109,Star Zone Smoke and Vape shop,9 Main St Woodland CA 95695 USA,vape
2af40994b2fdf6c5d9421d3bd5bc6083679a662a,40.1778497,-122.2362779,Sub Culture,335 Walnut St Red Bluff CA 96080 USA,vape
51a50e6f99dd0e837a880bb8e2a507e7fed4f954,40.180661,-122.228241,Tobacco & More,84 Belle Mill Rd Red Bluff CA 96080 USA,vape
4d3b0c7fa2ebd08ac99483b0058c6687d8dd8f2e,40.188417,-122.245988,TLC Scientific Lab-Store,111 Treasure Dr Red Bluff CA 96080 USA,vape
a519fcf04b2cd10c3f1a5671654fe8981d5ab283,39.721829,-121.828965,Hi Five Tobacco,1414 Park Ave Chico CA 95928 USA,vape
170a94f3af77313372ca648d34af19647b1b9584,38.800351,-123.0170339,Aces High Smoke Shop,421 S Cloverdale Blvd Cloverdale CA 95425 USA,vape
52144175937e172c5ab4411dd4586bd3e5bf7830,39.14758,-123.206834,Emerald Triangle Glassworks,415 S State St Ukiah CA 95482 USA,vape
700df54afb61e090feb4fd48dbab974753d4df13,38.9546489,-122.6456896,A & T's Tobacco N More,14260 Lakeshore Dr Clearlake CA 95422 USA,vape
018e67e80a8f657073335d9083d40d512897cda6,38.457671,-122.725388,The Cheshire Club,2074 Armory Dr Santa Rosa CA 95401 USA,vape
d2cae00de8412e2860c6eb35e25dd06637954cd9,38.234041,-122.641007,The Mighty Quinn,16 Western Ave Petaluma CA 94952 USA,vape
b466f0da8c76f45f90e2887f0f724c3bc89fedc3,38.646727,-121.491775,Sahara Hookah / CHI VAPE,1309 N Market Blvd #200 Sacramento CA 95834 USA,vape
b27dec23305baab10dd8c6df8dc8852a44c92df6,38.7127818,-121.3624676,3 Monkeys vape & smokes,4400 Elverta Rd unit 130 Antelope CA 95843 USA,vape
087d817d61f06d10890fa282c5205a059293d205,38.5082665,-121.5424185,Greenhaven Smoke and Vape Shop,261 Florin Rd Sacramento CA 95831 USA,vape
38b844ecc1ab76e73a3cc243b61a4825c51df947,38.887108,-121.2932229,Bee 2 Vape & Smoke Shop,150 G St Lincoln CA 95648 USA,vape
9933d8f29b23ef9e574b06b3b0991d3f20675872,38.9559458,-119.944709,Tahoe Big Cloudz #2,4035 Lake Tahoe Blvd South Lake Tahoe CA 96150 USA,vape
e65845b1d6fdb8ec55140365e4922321c87a2085,37.9840745,-121.8038805,Mistique Vape & Taste Saloon,3721 Sunset Ln #105 Antioch CA 94509 USA,vape
60c7a5773a00b903b4ea049e92945b192a9a4352,37.6372761,-120.7674063,Jays Vape & Tobacco,12162 Yosemite Blvd Waterford CA 95386 USA,vape
18290ea9f3fba55b0d0502de8b8a17f0dd07b191,38.1283065,-121.2593679,Tobacco City N Vape,550 S Cherokee Ln # G Lodi CA 95240 USA,vape
423a6c7990a4d035886ed0354ca6db65b58c0499,38.0082004,-121.3099944,Stockton Smokeshop & Vape,6107 N El Dorado St Stockton CA 95207 USA,vape
cee9d1c22af15a312d013cc1199024b91f63a64a,37.982741,-120.3849373,Sierra Smoke 'n Vape,4952 152 W Stockton St Sonora CA 95370 United States,vape
8c34d4c68738f0ea3535e6fdef76fb62f737c7ac,37.3540536,-121.9490435,Hot Box Smoke Shop,1111 El Camino Real #3 Santa Clara CA 95050 USA,vape
7332115261824e537efbe3c8111464474e9fcef7,37.35188,-121.982118,City Rock Smoke Shop,3078 El Camino Real Santa Clara CA 95051 USA,vape
ca73451444f4b8347a05ab83e6b50f47ff87e7c5,37.302151,-120.485261,The Vapors Merced,615 W Main St Merced CA 95340 USA,vape
eee99f05783781e12d36e6487d1789b1c91c505f,37.0565392,-120.8377236,Uptown smoke shop,1247 E Pacheco Blvd Los Banos CA 93635 USA,vape
da9f339ef9c8339577b0630f92afe59665d7e553,37.3595774,-120.596132,World of Smoke,2698 First St Atwater CA 95301 USA,vape
e17fc065eda686142e975b92df00e215611f0574,37.330727,-120.468165,Cigarettes & Cigars,3528 G St Merced CA 95340 USA,vape
0b0cb2a3d14b15f697c9b31fd3d5dbb21a3e903c,36.8235916,-119.8267089,THE GREENMILE VAPE & SMOKE SHOP,2014 W Bullard Ave Fresno CA 93711 USA,vape
561c95cd44f0691ec206d6ac76686ff8d0b8cb05,36.9721144,-120.0422769,Toby's Vapes,1490 Tozer St Madera CA 93638 USA,vape
d8fd68ba300e858555e86946f5b10be8dc79941a,36.7063844,-119.5707338,Drip Vapor Lounge,2407 Jensen Ave Sanger CA 93657 USA,vape
1ee11880810d3f46279a1ae700cf6184e0de4fca,34.6600306,-118.1462056,ENDLESS VAPORS,818 W Ave L Lancaster CA 93534 USA,vape
3cab0195ac33a2877456c4b2ba74b3a163f1c630,36.6948994,-121.652109,Vape3one,1055 N Main St Salinas CA 93906 USA,vape
f3b66be454947c981f60c9a42f395271d17d54ca,35.2906779,-120.6595672,Royal Smoke and Vape,592 California Blvd San Luis Obispo CA 93401 USA,vape
f98542b497adec5d846a2787be8356bd34a5b49f,36.6033874,-119.4583388,Reedley Smoke Shop,793 N Reed Ave Reedley CA 93654 USA,vape
547009a381f2fa1772709c860c497b1187cd8987,35.3757148,-118.9456273,Havana House Smoke Shop,3221 Niles St Bakersfield CA 93306 USA,vape
dab84a9463428cd5600f4226ad76758753fed7ab,36.3077975,-119.7813377,The GreenMile Vape & Smoke Shop,855 N Lemoore Ave # 130 Lemoore CA 93245 USA,vape
846a8f58742d97445d934d49ec2e509e23384f78,35.39281,-118.950422,Deluxe Tobacco & Vape,2600 Oswell St ste j Bakersfield CA 93306 USA,vape
183b72fb3addd26a91a6955c9096ad96d680c57b,36.0654123,-119.0475838,z's smoke shop & vapes,1365 W Olive Ave f Porterville CA 93257 USA,vape
d0bf710a82409f3c52d9b4733efb9a47d2d012c5,35.6256851,-117.6713901,KCW Vapors,257 Balsam St Ridgecrest CA 93555 USA,vape
54ce64f718923b6dcd99decffa0f803f79ed64a6,34.9485828,-120.4363132,Amsterdam Lounge & Smoke Shop,437 S Broadway Santa Maria CA 93458 USA,vape
ba4c346af6f0be8019c767a626e9e372f1486e3d,34.6911204,-120.4363626,Hi time tobacco,1430 Burton Mesa Blvd Lompoc CA 93436 USA,vape
cc8324ad5abcc0d71dcde2884721aa46b225f6f4,34.8595231,-118.1629501,Vape And Bake,2689 Sierra Hwy Rosamond CA 93560 USA,vape
08312b9bbd6887fb2b4ecaeb4c8eb43556f1013b,34.8640333,-118.1663719,High Desert Vapor,2997 Desert St Rosamond CA 93560 USA,vape
27cc437b34beb1255988d7f4777eead63e05208d,34.5330899,-117.253135,Dripstick Vape,18835 Chapae Ln Apple Valley CA 92307 USA,vape
27477f889cec0e33f6ab5f14e2dde730faf2e34d,34.899026,-117.025531,Smoked Out Smoke Shop & Vape,215 E Main St Barstow CA 92311 USA,vape
b248a30167976c441aec4ba122e5b23eb8aef05b,34.897639,-117.008494,So*Cal Smoke & Vape Shop,1251 E Main St #8 Barstow CA 92311 USA,vape
020055c27de544920b190c901b798318ba07de52,34.4700052,-117.3161223,Vape Shop,Hesperia CA 92345 USA,vape
ad45f45dc14964bceac6417ae59b6c06823d825d,34.5083735,-117.3457659,R Prime Vapes,14560 Palmdale Rd #36 Victorville CA 92392 USA,vape
12a6a18609f04064338902871ff40d896ff69f19,34.5370907,-117.2529202,Smokin Out Vapor, Glass, & More,18835 CA-18 Apple Valley CA 92307 USA,vape
51aa2bbe6147f6a7d435c31010cc4d2aee8ad94f,33.8191088,-116.5458593,Michael's Vape Shop,333 S Indian Canyon Dr Palm Springs CA 92262 USA,vape
77371ca634c7b53e83a716d08709eeab6f702bb0,34.8146236,-114.6030777,The Bud Farmacy,101 E Spikes Rd Needles CA 92363 USA,vape
aae6b377a6375d349db62915bc9321d6a0f6a4d4,34.2616858,-118.7946734,HOOKAH VALLEY,1230 Madera Rd #3 Simi Valley CA 93065 USA,vape
36a576a19c06e927ec3708b1dee3c52e52a7957e,34.045799,-118.450795,Apollo Vapor store • USA portable dry herbs vaporizers • Los Angeles online best sale shop near me,11400 W Olympic Blvd #267 Los Angeles CA 90064 USA,vape
009687492b37f0fbfaf3f6fc91776528afc783a7,33.846716,-118.3376624,XL Vape,2807 Oregon Ct Torrance CA 90503 USA,vape
f40b42ae34b9d48f06ce6662f8968f4896757aca,33.8607758,-117.8194789,Abstrakt Vape Co.,1241 N Lakeview Ave ste d Anaheim CA 92807 United States,vape
f0ab4c8f0637551a8c4dbc5bf4aef46625aaeca2,34.0339956,-117.6876322,Cigarette Plus & Vape Store,12079 Central Ave Chino CA 91710 USA,vape
314b81adc700201ff831798df196b744ba726c06,33.8819361,-118.123957,LA Vape Company,9836 Flower St Bellflower CA 90000 USA,vape
3afc34624582767ddf7dca5ec3aabcc5038cce9b,33.743111,-118.034175,West Coast Vape Supply,5445 Oceanus Dr #102 Huntington Beach CA 92649 USA,vape
44f4162c8611d1de3922dabe815fb3753b9d138e,33.931761,-116.976775,Smoke & Vape,754 Beaumont Ave Beaumont CA 92223 USA,vape
cdbf587bb4970449a9e02265021824fa449b158c,34.0282772,-117.1189142,Smoke Smart Vape Shope,Hampton Rd Yucaipa CA 92399 USA,vape
7d63a7ddbc1f7e2a3a3711e69e526d58a15ba029,33.8967312,-117.4726677,Landslide Vape - Online Only,3410 La Sierra Ave Unit 161 Riverside CA 92503 USA,vape
6744c5182ac29925db37d5e877f63fecc3ee159d,33.9451976,-117.2794192,Vape Shop:Vapor Boss,12125 Day St J303 Moreno Valley CA 92557 USA,vape
4c2a23493975b5acb48a031ea21d23fb36db5e48,34.1226984,-117.3733339,Rialto Smoke And Vape,222 W Baseline Rd Rialto CA 92376 USA,vape
3d2f7699afd2529ceab59ae2dd55008f89cfe95a,34.1511281,-116.0544719,Next Level Vaping No.2,5653 Plaza Rd Twentynine Palms CA 92277 USA,vape
bc01e286460428aa36616c78f89d0c2fa4fa9fea,34.1872436,-116.0552327,my vape life,3668 Adobe Rd Twentynine Palms CA 92277 USA,vape
2bf569664acc9dfee94537a5598a078f4ef15fe7,34.1649904,-116.0544466,Alien vapory,4890 Adobe Rd Twentynine Palms CA 92277 USA,vape
a6c6c6c05bdd7c1b93b2a0eff051d74a62c87068,33.6105374,-114.5976417,Steve's Smoke Shop,409 Hobsonway Blythe CA 92225 USA,vape
ffcb7792bf501ab5c4a318654e4d14cac85c281a,33.1781956,-117.3308209,Aroma Avenue Vape,2525 El Camino Real Carlsbad CA 92008 USA,vape
555b810ffc374b4c7aef71b26c9d3f7a8c1f1870,33.200373,-117.331381,Aroma Avenue Vape,1405 S El Camino Real STE 5113 Oceanside CA 92054 USA,vape
90f870769a951a1979a3cdbe437d7787d53ffcd7,33.6382356,-117.9425488,Vape Goddess,1011 Brioso Dr Costa Mesa CA 92627 USA,vape
036fd3c6ffab7653c0b7a3cad5e99fcbbb7b1b6f,32.7889994,-117.2056515,Vape & Smoke Shop Universe,2525 Morena Blvd San Diego CA 92110 USA,vape
7d5c2e0a376ad3b222f71aa33b78633dfec248e3,33.071445,-117.066738,Vape Avenue Escondido,272 E Via Rancho Pkwy Escondido CA 92025 USA,vape
9de1b58cbff1802a672ea060aa863bb47cc6710d,33.046655,-117.2556756,South Coast Vapor Co.,1532 Encinitas Blvd Encinitas CA 92024 USA,vape
243333d58355e7496de536409c517c9e2c57f4da,32.731719,-116.972414,Vaping Veteran's Supplies LLC,10174 Austin Drive BOX 1333 Spring Valley CA 91977 United States,vape
8f3bce8569a0a285b10bf08d1c76ffd179da1fe8,37.8685843,-122.2594428,WHELANS GLASS GALLERY, VAPOR, CIGAR, GIFT & SMOKE SHOP,2486 Bancroft Way Berkeley CA 94704 USA,vapor
3ff125474e53099ac564e2782796a5f368d11c8e,40.5702936,-122.338268,Golden State Vapor,2537 Victor Ave Redding CA 96002 USA,vapor
cbd77d7b60e42e7b06e7338beec233d09541a52c,37.9066547,-122.0659795,To The Cloud Vapor Store,1990 N California Blvd Walnut Creek CA 94596 USA,vapor
a0753eca2bdaa4e64c2cb58c4cf695378f10ab0b,37.566682,-122.320407,The Zone Smoke Shop and Vapor,516 E 3rd Ave San Mateo CA 94401 USA,vapor
a03e4d022869f2e9f04d6d2833ff1fe4367201be,33.6669749,-117.7483248,Sugoi Vapor,208 Technology Dr #M Irvine CA 92618 United States,vapor
6ed4d391946dd47e2b9e00ae0e3368407e8ae737,37.26145,-121.929059,us vapor mods,14938 Camden Ave San Jose CA 95124 USA,vapor
46ee5c12b92f62fdd7eea0c6cddd7588ce12e873,36.8272591,-119.7883354,High Stakes Vapor (by appointment only),90 E Escalon Ave #112 Fresno CA 93710 USA,vapor
100399fb40c2f899ad04ea4e8b09d88ceed2bef9,34.036221,-117.609083,RUTHLESS VAPOR,2040 S Lynx Pl Ontario CA 91761 USA,vapor
8310224f683420d4252d82a7ab003012278128eb,34.2660541,-118.7954979,Cloud10 Vapor Bar,1464 Madera Rd L Simi Valley CA 93065 USA,vapor
acedad7d6730af372049d88c1f215e7681a6dac7,34.140914,-118.224856,Simply Vapor,2700 Colorado Blvd Eagle Rock Plaza Next To Game Stop Los Angeles CA 90041 United States,vapor
6f56a74af044e9fc9e9d4f63b0deeadb534464fd,33.692034,-117.857375,Verdict Vapors,17865 Sky Park Cir Irvine CA 92614 USA,vapor
5814ac8c2d64051e0a2281f745032779b9845e03,33.7235102,-117.9177411,E-Juice Vapor,16520 Harbor Blvd Fountain Valley CA 92708 USA,vapor
8abeb38db02bcbe369dd39e8aeea70d8b027b8a3,33.74186,-117.8238962,Blaq Vapor,100 W Main St Tustin CA 92780 USA,vapor
c031e709d1543bb23ec8ce5b4149f16508402cbf,34.1254353,-118.2321495,Vida Cali Vapor,4115 Verdugo Rd Los Angeles CA 90065 USA,vapor
81c8f9b894aac6ec747450e3d0f209f40abecc78,34.0490428,-118.0332027,Steep Vapors,11135 Rush St South El Monte CA 91733 USA,vapor
bc9dc9004c769c466895c8ee9ceebc6ce0c099b7,33.8897634,-117.3222752,Rize Vapor,19510 Van Buren Boulevard F3-130 Riverside CA 92508 USA,vapor
6c7cae2e7999869c275e27efbcf50022ba18c6be,33.3439328,-118.3270559,Inno-Vapor Digital,161 Metropole Ave Avalon CA 90704 USA,vapor
19d38a50838245b017649ad9f371a312acbb8493,32.7183465,-117.1560789,Vapor High USA,1281 Ninth Ave #704 San Diego CA 92101 USA,vapor
194088e217227c0c9ea8bac0a8e2db9f17c7fdf0,41.3136903,-122.3132724,Mt. Shasta Vape,321 N Mt Shasta Blvd Mt Shasta CA 96067 USA,vaper
9c6e5ebcaa70d1d7a8c084c4ad3156cd8e2fe571,38.5679864,-121.4645234,Built to Win,3241 Folsom Blvd Sacramento CA 95816 USA,vaper
e523f54b294e5fd44d5931b52d34e433f7d87a3c,38.4539454,-121.3701765,G Vapers,8359 Elk Grove Florin Rd #103 Sacramento CA 95829 USA,vaper
9f08cc353412379dd03211290418baf98e9b79d7,34.1719119,-118.4393722,Vapers Wholesale Sherman Oaks,14048 Burbank Blvd Sherman Oaks CA 91401 USA,vaper
6029eb1292438ade210afd7edee203f46f1c516a,34.1009175,-118.1125712,Arowana Vaper,849 Padilla St San Gabriel CA 91776 USA,vaper
6b665f112512a2ae9681ac8a14cd191fbff552e2,40.415152,-120.6503782,Lassen Vape,1604 Main St Susanville CA 96130 USA,vaping
a4a6be1f6881c234b0f25f538ede549355283530,39.3926902,-123.3472329,Dabworks LLC,1611 S Main St a Willits CA 95490 USA,vaping
887485076f0f0cdcff33bf5fb9700e81089d8471,38.7432426,-121.2568058,3 Monkeys Smoke Shop,1850 Douglas Blvd Roseville CA 95661 USA,vaping
f7a839b5ecf63637f778193acfd68f5a668c5e84,36.3244334,-119.2610111,Visalia Smoke Shop,645 Lovers lane Visalia CA 93292 USA,vaping
4269e62cf98d06ef119a8a018e20b29378d61ecf,36.296498,-119.333245,Cigarette Depot,3837 W Caldwell Ave E Visalia CA 93277 USA,vaping
160a38eb06709bbee9a50f07b54fcb7b0e758896,35.3748923,-119.1060544,Dabber Box,1759 Elzworth St ste 7 Bakersfield CA 93312 USA,vaping
12ca49e0a41b378e801d2238254ef3804d5de60a,33.6220358,-117.7248908,Kingdom Elixir,23182 Alcalde Dr f Laguna Hills CA 92653 USA,vaping
b74088e6dc71e40305c08ee52747d7d650c86408,37.6341175,-122.1108775,Best Choice Electronic Cigarettes | e-Cigarettes,26250 Industrial Blvd Hayward CA 94545 USA,electronic+cigarette
03e30c2a3ee108ccf6366fa54179040d6151fda6,40.597787,-124.155734,Top Digital Cigs - The Electronic Cigarette Super Store,1049 Main St Fortuna CA 95540 USA,electronic+cigarette
a7c097cb92ade5661a6080ed17d7fb909f03015d,34.1979771,-118.4922144,T T Zig Electronic Cigarette,7020 Hayvenhurst Ave Van Nuys CA 91406 USA,electronic+cigarette
abc1ea51675a2d8d078dbd0c96ce101258dafe61,34.0484048,-118.4433859,CITIZEN ELECTRONIC CIGARETTE,11041 California State Route 2 #707 Los Angeles CA 90025 USA,electronic+cigarette
43698d99932f1789d32314a091f01058d6628763,34.06037,-118.397694,Ophis Vape, Electronic Cigarette Wholesaler,350 S Reeves Dr #203 Beverly Hills CA 90212 USA,electronic+cigarette
29e2390288c5e3bc665223a384696c1015601bc0,34.0376406,-118.2341354,Ttzig Electronic Cigarette Spl,1340 E 6th St Los Angeles CA 90021 USA,electronic+cigarette
236a32a66436bdace4233b91cb7d56e24acbb394,33.8821994,-117.599305,SimpleCig Electronic Cigarette,1785 Pomona Rd b Corona CA 92880 USA,electronic+cigarette
181ea5480f5c8105ffd51f3270c7b21308b2d648,33.758867,-118.13231,My Best E-Cigarette Reviews,5318 E 2nd St #352 Long Beach CA 90803 USA,electronic+cigarette
566491f3abdc0d89fe60479c0d80fb43059dfcac,34.2712796,-118.7032445,Vaporizer Merchant Accounts,4680 E Los Angeles Ave Simi Valley CA 93063 USA,electronic+cigarette
7f731dd0d4f395bc4aef0a1c4e9112d8d323cfa7,33.9435304,-117.2259957,Supreme Gallery Smoke & Vape Inc,12190 Perris Blvd Suite I - J Moreno Valley CA 92557 United States,electronic+cigarette
27e3321fb5d03d14d1c406fa7ba4b90f9d58ebf2,33.5133274,-117.1609287,Smokeless Selects Electronic Cigarettes and Cigars,27576 Commerce Center Dr Temecula CA 92590 USA,electronic+cigarette
